RTU MIREA 1 (RS51S)     
1 61785U 24199BC  26099.91967365  .00042926  00000+0  64704-3 0  9990
2 61785  97.3055 334.9990 0010555 160.3739 199.7923 15.54608048123849
TEVEL2-4                
1 63213U 25052D   26099.27052008  .00017105  00000+0  55036-3 0  9994
2 63213  97.3975 355.6466 0003043  38.3255 321.8203 15.32295435 59550
TEVEL2-5                
1 63214U 25052E   26099.21875050  .00016508  00000+0  53362-3 0  9995
2 63214  97.3971 355.5609 0003103  38.1453 322.0008 15.32154611 59545
TEVEL2-6                
1 63215U 25052F   26099.42531504  .00016562  00000+0  53591-3 0  9996
2 63215  97.3972 355.7526 0003173  37.0807 323.0654 15.32122004 59577
TEVEL2-1                
1 63217U 25052H   26099.95497373  .00016093  00000+0  52798-3 0  9998
2 63217  97.3948 355.9818 0003653  44.1323 316.0210 15.31681472 59649
TEVEL2-3                
1 63218U 25052J   26099.95176269  .00016315  00000+0  53452-3 0  9992
2 63218  97.3948 355.9931 0003707  44.6846 315.4693 15.31723539 59640
TEVEL2-2                
1 63219U 25052K   26099.95556571  .00016386  00000+0  53745-3 0  9994
2 63219  97.3945 355.9835 0003635  44.2792 315.8740 15.31686192 59647
TEVEL2-9                
1 63237U 25052AD  26099.52201728  .00015148  00000+0  52549-3 0  9994
2 63237  97.4013 355.0646 0007409  41.1023 319.0774 15.29867427 59520
TEVEL2-7                
1 63238U 25052AE  26099.48552635  .00014182  00000+0  49593-3 0  9998
2 63238  97.4012 354.9707 0007553  41.6621 318.5193 15.29621752 59512
TEVEL2-8                
1 63239U 25052AF  26099.95090236  .00014667  00000+0  51286-3 0  9995
2 63239  97.4014 355.4132 0007506  40.8568 319.3233 15.29615278 59589
HADES-ICM               
1 63492U 25052BN  26099.44404727  .00226717  00000+0  19174-2 0  9994
2 63492  97.3872   1.2479 0005328  76.9710 283.2146 15.69025398 59944
INNOSAT 16 (RS92S7)     
1 64878U 25155C   26099.96147193  .00006583  00000+0  26860-3 0  9993
2 64878  97.4512  67.3721 0012470  70.4451 289.8132 15.24694080 70272
GEOSCAN 6 (RS92S6)      
1 64879U 25155D   26099.94444133  .00011194  00000+0  40143-3 0  9990
2 64879  97.4508  68.3262 0009887  66.8679 293.3602 15.28837987 70336
GEOSCAN 1 (RS92S1)      
1 64880U 25155E   26099.90553308  .00011388  00000+0  40235-3 0  9990
2 64880  97.4507  68.3815 0009862  67.5115 292.7168 15.29321736 70338
239ALFEROV (RS61S)      
1 64881U 25155F   26099.96306353  .00014787  00000+0  49374-3 0  9992
2 64881  97.4509  68.7932 0009537  67.5057 292.7193 15.31097507 70369
GEOSCAN 2 (RS92S2)      
1 64890U 25155Q   26099.91177269  .00011634  00000+0  40734-3 0  9998
2 64890  97.4505  68.5121 0008917  57.4193 302.7907 15.29618715 70343
GEOSCAN 5 (RS92S5)      
1 64891U 25155R   26099.90109767  .00014240  00000+0  47088-3 0  9991
2 64891  97.4503  68.8419 0008497  73.8633 286.3543 15.31428477 70361
GEOSCAN 4 (RS92S4)      
1 64892U 25155S   26099.95658870  .00014825  00000+0  48829-3 0  9994
2 64892  97.4505  68.9287 0008562  74.0603 286.1582 15.31547352 70377
GEOSCAN 3 (RS92S3)      
1 64893U 25155T   26099.90523430  .00018377  00000+0  57570-3 0  9992
2 64893  97.4496  69.1325 0008394  76.2438 283.9738 15.33107461 70380
INNOSAT 3 (RS92S0)      
1 64894U 25155U   26099.95548318  .00034684  00000+0  88838-3 0  9990
2 64894  97.4459  70.0853 0008169  79.3776 280.8389 15.39278791 70453
KNACKSAT-2              
1 67683U 98067XZ  26099.86922060  .00036065  00000+0  53953-3 0  9996
2 67683  51.6307 276.6160 0011011 302.4945  57.4981 15.54571080  9631
